0 OPS 5113 (NAVSTAR 3)
1 11054U 78093A   13282.79051374  .00000045  00000-0  00000+0 0  2597
2 11054 063.1706 075.7744 0078012 225.2256 105.9717 01.93503205251019
0 OPS 5113 (NAVSTAR 3)
1 11054U 78093A   13286.52830225  .00000043  00000-0  00000+0 0  2602
2 11054 063.1725 075.6644 0078024 225.2940 189.6938 01.93503395251082
0 OPS 5113 (NAVSTAR 3)
1 11054U 78093A   13288.63782881  .00000018  00000-0  00000+0 0  2613
2 11054 063.1736 075.6025 0078038 225.3197 219.1921 01.93503471251128
0 OPS 5113 (NAVSTAR 3)
1 11054U 78093A   13290.65027756 -.00000008  00000-0  00000+0 0  2622
2 11054 063.1746 075.5434 0078079 225.3323 181.0792 01.93503486251161
0 OPS 5113 (NAVSTAR 3)
1 11054U 78093A   13294.15042760 -.00000013  00000-0  00000+0 0  2630
2 11054 063.1766 075.4407 0078187 225.3627 099.3054 01.93503407251232
